IRIDIUM 106             
1 41917U 17003A   23345.45341581  .00000268  00000+0  88527-4 0  9990
2 41917  86.3965 112.5032 0002205  87.7469 272.3979 14.34217094361526
IRIDIUM 103             
1 41918U 17003B   23345.44072369  .00000263  00000+0  86922-4 0  9997
2 41918  86.3963 112.4108 0002235 101.4291 258.7156 14.34218403361540
IRIDIUM 109             
1 41919U 17003C   23345.44705873  .00000270  00000+0  89431-4 0  9997
2 41919  86.3965 112.4524 0001890 100.2109 259.9300 14.34216926361515
IRIDIUM 102             
1 41920U 17003D   23345.83395955  .00000274  00000+0  90699-4 0  9990
2 41920  86.3963 112.2338 0001900  96.2226 263.9187 14.34219706361654
IRIDIUM 105             
1 41921U 17003E   23345.31629487  .00000295  00000+0  98274-4 0  9994
2 41921  86.3972  80.8578 0002144  96.9365 263.2075 14.34213698363434
IRIDIUM 104             
1 41922U 17003F   23345.84664897  .00000270  00000+0  89518-4 0  9991
2 41922  86.3963 112.2568 0002006 101.2838 258.8583 14.34217740361643
IRIDIUM 114             
1 41923U 17003G   23345.43437688  .00000246  00000+0  80666-4 0  9991
2 41923  86.3965 112.4162 0002119  87.7718 272.3720 14.34219345361566
IRIDIUM 108             
1 41924U 17003H   23345.32312596 -.00000040  00000+0 -21499-4 0  9993
2 41924  86.3962  80.7911 0002079  90.4675 269.6759 14.34215417363403
